NORAD_CAT_ID,OBJECT_NAME,OBJECT_TYPE,EPOCH,MEAN_MOTION,ECCENTRICITY,INCLINATION,RA_OF_ASC_NODE,ARG_OF_PERICENTER,MEAN_ANOMALY,BSTAR,MEAN_MOTION_DOT,MEAN_MOTION_DDOT,TLE_LINE0,TLE_LINE1,TLE_LINE2,SEMIMAJOR_AXIS,PERIOD,APOGEE,PERIGEE,DECAYED
52268.0,STARLINK-3746,PAYLOAD,2023-06-20 05:14:40,15.08843933,0.0001256,53.2148,248.9973,65.1263,294.9859,7.2654e-05,8.69e-06,0.0,0 STARLINK-3746,1 52268U 22041H   23171.21852990  .00000869  00000-0  72654-4 0  9993,2 52268  53.2148 248.9973 0001256  65.1263 294.9859 15.08843933 65604,6917.868,95.437,540.602,538.864,0.0
52268.0,STARLINK-3746,PAYLOAD,2023-06-20 11:36:13,15.08841505,0.000125,53.2153,247.8076,66.2219,293.8904,0.00013897,1.925e-05,0.0,0 STARLINK-3746,1 52268U 22041H   23171.48349179  .00001925  00000-0  13897-3 0  9999,2 52268  53.2153 247.8076 0001250  66.2219 293.8904 15.08841505 64420,6917.876,95.437,540.606,538.876,0.0
52268.0,STARLINK-3746,PAYLOAD,2023-06-21 11:27:00,15.08846494,0.0001045,53.2161,243.3448,78.2362,281.8747,5.1587e-05,5.33e-06,0.0,0 STARLINK-3746,1 52268U 22041H   23172.47708675  .00000533  00000-0  51587-4 0  9992,2 52268  53.2161 243.3448 0001045  78.2362 281.8747 15.08846494 65792,6917.861,95.437,540.448,539.003,0.0
52268.0,STARLINK-3746,PAYLOAD,2023-06-22 09:42:25,15.08825732,9.43e-05,53.2162,239.1815,80.2004,279.9095,0.00016329,2.311e-05,0.0,0 STARLINK-3746,1 52268U 22041H   23173.40445796  .00002311  00000-0  16329-3 0  9998,2 52268  53.2162 239.1815 0000943  80.2004 279.9095 15.08825732 65938,6917.924,95.438,540.441,539.137,0.0
52268.0,STARLINK-3746,PAYLOAD,2023-06-22 11:17:47,15.08837064,9.34e-05,53.2164,238.8842,79.5677,280.542,5.5329e-05,5.93e-06,0.0,0 STARLINK-3746,1 52268U 22041H   23173.47069309  .00000593  00000-0  55329-4 0  9991,2 52268  53.2164 238.8842 0000934  79.5677 280.5420 15.08837064 65945,6917.889,95.438,540.4,539.108,0.0
52268.0,STARLINK-3746,PAYLOAD,2023-06-23 09:33:11,15.08845043,9.21e-05,53.2162,234.7211,77.9305,282.1791,0.00010549,1.392e-05,0.0,0 STARLINK-3746,1 52268U 22041H   23174.39804793  .00001392  00000-0  10549-3 0  9999,2 52268  53.2162 234.7211 0000921  77.9305 282.1791 15.08845043 66085,6917.865,95.437,540.367,539.093,0.0
52268.0,STARLINK-3746,PAYLOAD,2023-06-23 20:40:53,15.08839592,7.5e-05,53.2149,232.6394,93.6288,266.479,7.6777e-05,9.34e-06,0.0,0 STARLINK-3746,1 52268U 22041H   23174.86173094  .00000934  00000-0  76777-4 0  9991,2 52268  53.2149 232.6394 0000750  93.6288 266.4790 15.08839592 66158,6917.882,95.438,540.265,539.228,0.0
52268.0,STARLINK-3746,PAYLOAD,2023-06-24 07:48:36,15.08830472,0.0001013,53.2165,230.5586,83.4782,276.6326,3.6102e-05,2.87e-06,0.0,0 STARLINK-3746,1 52268U 22041H   23175.32542122  .00000287  00000-0  36102-4 0  9994,2 52268  53.2165 230.5586 0001013  83.4782 276.6326 15.08830472 66229,6917.91,95.438,540.475,539.074,0.0
52268.0,STARLINK-3746,PAYLOAD,2023-06-24 14:10:08,15.0883786,0.0001139,53.2165,229.3689,81.4521,278.66,9.0044e-05,1.145e-05,0.0,0 STARLINK-3746,1 52268U 22041H   23175.59037672  .00001145  00000-0  90044-4 0  9991,2 52268  53.2165 229.3689 0001139  81.4521 278.6600 15.08837860 66266,6917.887,95.438,540.54,538.964,0.0
52268.0,STARLINK-3746,PAYLOAD,2023-06-26 02:44:00,15.08834616,0.0001195,53.2145,222.5289,77.9375,282.1751,8.9358e-05,1.134e-05,0.0,0 STARLINK-3746,1 52268U 22041H   23177.11389903  .00001134  00000-0  89358-4 0  9992,2 52268  53.2145 222.5289 0001195  77.9375 282.1751 15.08834616 66492,6917.897,95.438,540.589,538.935,0.0
52268.0,STARLINK-3746,PAYLOAD,2023-06-27 08:56:20,15.0884141,0.0001163,53.2155,216.8797,75.9067,284.2055,5.0087e-05,5.09e-06,0.0,0 STARLINK-3746,1 52268U 22041H   23178.37245922  .00000509  00000-0  50087-4 0  9995,2 52268  53.2155 216.8797 0001163  75.9067 284.2055 15.08841410 66685,6917.876,95.437,540.546,538.937,0.0
52268.0,STARLINK-3746,PAYLOAD,2023-06-28 13:33:16,15.08845005,0.0001149,53.2159,211.526,78.9796,281.1326,0.00010546,1.391e-05,0.0,0 STARLINK-3746,1 52268U 22041H   23179.56477420  .00001391  00000-0  10546-3 0  9992,2 52268  53.2159 211.5260 0001149  78.9796 281.1326 15.08845005 66863,6917.865,95.437,540.525,538.935,0.0
52268.0,STARLINK-3746,PAYLOAD,2023-06-29 08:37:54,15.08836923,0.0001187,53.2161,207.9558,88.699,271.4138,2.8293e-05,1.62e-06,0.0,0 STARLINK-3746,1 52268U 22041H   23180.35966100  .00000162  00000-0  28293-4 0  9993,2 52268  53.2161 207.9558 0001187  88.6990 271.4138 15.08836923 66986,6917.89,95.438,540.576,538.934,0.0
52268.0,STARLINK-3746,PAYLOAD,2023-06-30 13:14:50,15.08841019,0.0001155,53.2161,202.6057,80.3363,279.7759,1.3537e-05,-7.2e-07,0.0,0 STARLINK-3746,1 52268U 22041H   23181.55197877 -.00000072  00000-0  13537-4 0  9999,2 52268  53.2161 202.6057 0001155  80.3363 279.7759 15.08841019 67163,6917.877,95.437,540.541,538.943,0.0
52268.0,STARLINK-3746,PAYLOAD,2023-06-30 18:01:00,15.08835686,0.0001109,53.2163,201.7131,84.9205,275.1914,-2.7249e-05,-7.21e-06,0.0,0 STARLINK-3746,1 52268U 22041H   23181.75070308 -.00000721  00000-0 -27249-4 0  9997,2 52268  53.2163 201.7131 0001109  84.9205 275.1914 15.08835686 67191,6917.894,95.438,540.526,538.991,0.0
52268.0,STARLINK-3746,PAYLOAD,2023-07-02 08:10:16,15.08838551,0.0001098,53.2157,194.5761,75.8237,284.2877,2.9451e-05,1.81e-06,0.0,0 STARLINK-3746,1 52268U 22041H   23183.34046384  .00000181  00000-0  29451-4 0  9996,2 52268  53.2157 194.5761 0001098  75.8237 284.2877 15.08838551 67433,6917.885,95.438,540.509,538.99,0.0
52268.0,STARLINK-3746,PAYLOAD,2023-07-03 17:33:22,15.08838197,0.0001101,53.216,188.3319,81.2632,278.8485,5.1324e-05,5.29e-06,0.0,0 STARLINK-3746,1 52268U 22041H   23184.73150496  .00000529  00000-0  51324-4 0  9990,2 52268  53.2160 188.3319 0001101  81.2632 278.8485 15.08838197 67645,6917.886,95.438,540.513,538.989,0.0
52268.0,STARLINK-3746,PAYLOAD,2023-07-04 23:45:41,15.08841502,0.000118,53.2165,182.6819,80.1119,280.0007,4.1157e-05,3.67e-06,0.0,0 STARLINK-3746,1 52268U 22041H   23185.99006313  .00000367  00000-0  41157-4 0  9990,2 52268  53.2165 182.6819 0001180  80.1119 280.0007 15.08841502 67837,6917.876,95.437,540.557,538.924,0.0
52268.0,STARLINK-3746,PAYLOAD,2023-07-06 01:11:52,15.08836023,0.000117,53.2162,177.9242,80.3904,279.722,-6.2783e-06,-3.88e-06,0.0,0 STARLINK-3746,1 52268U 22041H   23187.04990779 -.00000388  00000-0 -62783-5 0  9990,2 52268  53.2162 177.9242 0001170  80.3904 279.7220 15.08836023 67995,6917.893,95.438,540.567,538.948,0.0
52268.0,STARLINK-3746,PAYLOAD,2023-07-06 23:27:15,15.08841341,0.0001161,53.2161,173.7607,82.5471,277.5653,3.8481e-05,3.25e-06,0.0,0 STARLINK-3746,1 52268U 22041H   23187.97726376  .00000325  00000-0  38481-4 0  9998,2 52268  53.2161 173.7607 0001161  82.5471 277.5653 15.08841341 68138,6917.876,95.437,540.544,538.938,0.0
52268.0,STARLINK-3746,PAYLOAD,2023-07-07 23:18:03,15.08834501,0.0001155,53.2161,169.3007,82.2033,277.909,3.5258e-05,2.73e-06,0.0,0 STARLINK-3746,1 52268U 22041H   23188.97086885  .00000273  00000-0  35258-4 0  9994,2 52268  53.2161 169.3007 0001155  82.2033 277.9090 15.08834501 68282,6917.897,95.438,540.561,538.963,0.0
52268.0,STARLINK-3746,PAYLOAD,2023-07-09 02:19:36,15.08834804,0.0001138,53.2163,164.2457,88.666,271.4462,-1.2819e-05,-4.92e-06,0.0,0 STARLINK-3746,1 52268U 22041H   23190.09695293 -.00000492  00000-0 -12819-4 0  9992,2 52268  53.2163 164.2457 0001138  88.6660 271.4462 15.08834804 68451,6917.896,95.438,540.549,538.974,0.0
52268.0,STARLINK-3746,PAYLOAD,2023-07-10 05:21:10,15.08836264,0.000115,53.2162,159.1908,91.6173,268.4951,3.348e-05,2.45e-06,0.0,0 STARLINK-3746,1 52268U 22041H   23191.22303367  .00000245  00000-0  33480-4 0  9997,2 52268  53.2162 159.1908 0001150  91.6173 268.4951 15.08836264 68621,6917.892,95.438,540.552,538.961,0.0
52268.0,STARLINK-3746,PAYLOAD,2023-07-11 06:47:19,15.08843211,0.0001118,53.2164,154.4326,92.0675,268.0445,0.00010231,1.341e-05,0.0,0 STARLINK-3746,1 52268U 22041H   23192.28286818  .00001341  00000-0  10231-3 0  9991,2 52268  53.2164 154.4326 0001118  92.0675 268.0445 15.08843211 68782,6917.871,95.437,540.509,538.962,0.0
52268.0,STARLINK-3746,PAYLOAD,2023-07-12 03:27:20,15.08840839,0.0001149,53.2167,150.5674,91.5268,268.5856,6.6251e-05,7.67e-06,0.0,0 STARLINK-3746,1 52268U 22041H   23193.14399127  .00000767  00000-0  66251-4 0  9990,2 52268  53.2167 150.5674 0001149  91.5268 268.5856 15.08840839 68913,6917.878,95.438,540.538,538.948,0.0
52268.0,STARLINK-3746,PAYLOAD,2023-07-13 14:25:50,15.08840327,0.0001275,53.2172,144.0243,88.2755,271.8383,7.8642e-06,-1.63e-06,0.0,0 STARLINK-3746,1 52268U 22041H   23194.60127340 -.00000163  00000-0  78642-5 0  9997,2 52268  53.2172 144.0243 0001275  88.2755 271.8383 15.08840327 69132,6917.879,95.438,540.626,538.862,0.0
52268.0,STARLINK-3746,PAYLOAD,2023-07-15 01:24:18,15.0883868,0.0001293,53.2171,137.4827,87.1521,272.9619,8.001e-05,9.86e-06,0.0,0 STARLINK-3746,1 52268U 22041H   23196.05855290  .00000986  00000-0  80010-4 0  9993,2 52268  53.2171 137.4827 0001293  87.1521 272.9619 15.08838680 69351,6917.884,95.438,540.644,538.855,0.0
52268.0,STARLINK-3746,PAYLOAD,2023-07-15 04:35:04,15.08845415,0.0001274,53.2172,136.8873,88.1765,271.9373,0.00010509,1.385e-05,0.0,0 STARLINK-3746,1 52268U 22041H   23196.19102761  .00001385  00000-0  10509-3 0  9995,2 52268  53.2172 136.8873 0001274  88.1765 271.9373 15.08845415 69378,6917.864,95.437,540.61,538.848,0.0
52268.0,STARLINK-3746,PAYLOAD,2023-07-16 02:50:30,15.08827687,0.0001326,53.2179,132.73,88.4456,271.6688,-2.5507e-05,-6.94e-06,0.0,0 STARLINK-3746,1 52268U 22041H   23197.11840322 -.00000694  00000-0 -25507-4 0  9999,2 52268  53.2179 132.7300 0001326  88.4456 271.6688 15.08827687 69516,6917.918,95.438,540.7,538.866,0.0
52268.0,STARLINK-3746,PAYLOAD,2023-07-16 23:30:30,15.08841745,0.0001139,53.2168,128.8592,83.7786,276.3336,-2.7155e-05,-7.2e-06,0.0,0 STARLINK-3746,1 52268U 22041H   23197.97952022 -.00000720  00000-0 -27155-4 0  9995,2 52268  53.2168 128.8592 0001139  83.7786 276.3336 15.08841745 69646,6917.875,95.437,540.528,538.952,0.0
